[{"OBJECT_NAME":"JACKAL X-1L-002","OBJECT_ID":"2024-043AN","EPOCH":"2026-03-09T23:11:34.268640","MEAN_MOTION":15.42550186,"ECCENTRICITY":0.00077419,"INCLINATION":97.5416,"RA_OF_ASC_NODE":211.0971,"ARG_OF_PERICENTER":201.4891,"MEAN_ANOMALY":158.6032,"EPHEMERIS_TYPE":0,"CLASSIFICATION_TYPE":"U","NORAD_CAT_ID":59134,"ELEMENT_SET_NO":999,"REV_AT_EPOCH":11230,"BSTAR":0.00054451815,"MEAN_MOTION_DOT":0.00023615,"MEAN_MOTION_DDOT":0},{"OBJECT_NAME":"STARLINK-34003","OBJECT_ID":"2025-094U","EPOCH":"2026-03-09T17:01:34.865184","MEAN_MOTION":15.42711308,"ECCENTRICITY":0.00038112,"INCLINATION":70.0011,"RA_OF_ASC_NODE":205.2375,"ARG_OF_PERICENTER":288.4816,"MEAN_ANOMALY":71.5951,"EPHEMERIS_TYPE":0,"CLASSIFICATION_TYPE":"U","NORAD_CAT_ID":63882,"ELEMENT_SET_NO":999,"REV_AT_EPOCH":4793,"BSTAR":0.0018682176,"MEAN_MOTION_DOT":0.00082547,"MEAN_MOTION_DDOT":0}]
