JACKAL X-1L-002         
1 59134U 24043AN  26068.96636884  .00023615  00000+0  54452-3 0  9996
2 59134  97.5416 211.0971 0007742 201.4891 158.6032 15.42550186112301
STARLINK-34003          
1 63882U 25094U   26068.70943131  .00082547  00000+0  18682-2 0  9999
2 63882  70.0011 205.2375 0003811 288.4816  71.5951 15.42711308 47935
